{
  "type": "FeatureCollection",
  "features": [
    {
      "type": "Feature",
      "properties": {
        "norad_id": 36744,
        "name": "COMS 1",
        "group": "weather",
        "lat": -2.859896352181493,
        "lon": 36.935976748317564,
        "alt_km": 35787.913372556955,
        "timestamp": "2025-12-25T11:37:44.064663+00:00",
        "meta_object_name": "COMS 1",
        "meta_object_id": "2010-032A",
        "meta_epoch": "2025-12-24T22:38:51.746208",
        "meta_mean_motion": 1.00270195,
        "meta_eccentricity": 8.62e-05,
        "meta_inclination": 4.3676,
        "meta_ra_of_asc_node": 77.8605,
        "meta_arg_of_pericenter": 214.3795,
        "meta_mean_anomaly": 269.3601,
        "meta_ephemeris_type": 0,
        "meta_classification_type": "U",
        "meta_norad_cat_id": 36744,
        "meta_element_set_no": 999,
        "meta_rev_at_epoch": 4934,
        "meta_bstar": 0,
        "meta_mean_motion_dot": -3.25e-06,
        "meta_mean_motion_ddot": 0,
        "tle_line1": "1 36744U 10032A   25358.94365447 -.00000325  00000+0  00000+0 0  9994",
        "tle_line2": "2 36744   4.3676  77.8605 0000862 214.3795 269.3601  1.00270195 49344"
      },
      "geometry": {
        "type": "Point",
        "coordinates": [
          36.935976748317564,
          -2.859896352181493
        ]
      }
    },
    {
      "type": "Feature",
      "properties": {
        "norad_id": 37214,
        "name": "FENGYUN 3B",
        "group": "weather",
        "lat": 66.97784945822538,
        "lon": -118.58136037555438,
        "alt_km": 849.9017847024561,
        "timestamp": "2025-12-25T11:37:44.064676+00:00",
        "meta_object_name": "FENGYUN 3B",
        "meta_object_id": "2010-059A",
        "meta_epoch": "2025-12-25T04:43:15.592800",
        "meta_mean_motion": 14.14793467,
        "meta_eccentricity": 0.0021493,
        "meta_inclination": 98.9886,
        "meta_ra_of_asc_node": 39.2599,
        "meta_arg_of_pericenter": 321.9225,
        "meta_mean_anomaly": 124.0227,
        "meta_ephemeris_type": 0,
        "meta_classification_type": "U",
        "meta_norad_cat_id": 37214,
        "meta_element_set_no": 999,
        "meta_rev_at_epoch": 78282,
        "meta_bstar": 0.00016183,
        "meta_mean_motion_dot": 2.67e-06,
        "meta_mean_motion_ddot": 0,
        "tle_line1": "1 37214U 10059A   25359.19670825  .00000267  00000+0  16183-3 0  9990",
        "tle_line2": "2 37214  98.9886  39.2599 0021493 321.9225 124.0227 14.14793467782828"
      },
      "geometry": {
        "type": "Point",
        "coordinates": [
          -118.58136037555438,
          66.97784945822538
        ]
      }
    },
    {
      "type": "Feature",
      "properties": {
        "norad_id": 37849,
        "name": "SUOMI NPP",
        "group": "weather",
        "lat": 11.55364945597047,
        "lon": 118.52206183990138,
        "alt_km": 827.759770071284,
        "timestamp": "2025-12-25T11:37:44.064689+00:00",
        "meta_object_name": "SUOMI NPP",
        "meta_object_id": "2011-061A",
        "meta_epoch": "2025-12-22T15:10:21.732672",
        "meta_mean_motion": 14.19516903,
        "meta_eccentricity": 0.00024883,
        "meta_inclination": 98.7787,
        "meta_ra_of_asc_node": 293.8852,
        "meta_arg_of_pericenter": 103.0781,
        "meta_mean_anomaly": 257.0673,
        "meta_ephemeris_type": 0,
        "meta_classification_type": "U",
        "meta_norad_cat_id": 37849,
        "meta_element_set_no": 999,
        "meta_rev_at_epoch": 73339,
        "meta_bstar": 6.3406935e-05,
        "meta_mean_motion_dot": 8.9e-07,
        "meta_mean_motion_ddot": 0,
        "tle_line1": "1 37849U 11061A   25356.63219598  .00000089  00000+0  63407-4 0  9994",
        "tle_line2": "2 37849  98.7787 293.8852 0002488 103.0781 257.0673 14.19516903733392"
      },
      "geometry": {
        "type": "Point",
        "coordinates": [
          118.52206183990138,
          11.55364945597047
        ]
      }
    },
    {
      "type": "Feature",
      "properties": {
        "norad_id": 38552,
        "name": "METEOSAT-10 (MSG-3)",
        "group": "weather",
        "lat": -1.9650723684889817,
        "lon": -91.12486970141386,
        "alt_km": 35784.70764825926,
        "timestamp": "2025-12-25T11:37:44.064703+00:00",
        "meta_object_name": "METEOSAT-10 (MSG-3)",
        "meta_object_id": "2012-035B",
        "meta_epoch": "2025-12-24T21:39:36.881280",
        "meta_mean_motion": 1.0026661,
        "meta_eccentricity": 0.0001454,
        "meta_inclination": 4.2554,
        "meta_ra_of_asc_node": 61.689,
        "meta_arg_of_pericenter": 267.49,
        "meta_mean_anomaly": 89.6857,
        "meta_ephemeris_type": 0,
        "meta_classification_type": "U",
        "meta_norad_cat_id": 38552,
        "meta_element_set_no": 999,
        "meta_rev_at_epoch": 4910,
        "meta_bstar": 0,
        "meta_mean_motion_dot": 1.4e-07,
        "meta_mean_motion_ddot": 0,
        "tle_line1": "1 38552U 12035B   25358.90251020  .00000014  00000+0  00000+0 0  9999",
        "tle_line2": "2 38552   4.2554  61.6890 0001454 267.4900  89.6857  1.00266610 49106"
      },
      "geometry": {
        "type": "Point",
        "coordinates": [
          -91.12486970141386,
          -1.9650723684889817
        ]
      }
    },
    {
      "type": "Feature",
      "properties": {
        "norad_id": 38771,
        "name": "METOP-B",
        "group": "weather",
        "lat": 70.84796585135882,
        "lon": -104.68532678946369,
        "alt_km": 811.3859695633901,
        "timestamp": "2025-12-25T11:37:44.064714+00:00",
        "meta_object_name": "METOP-B",
        "meta_object_id": "2012-049A",
        "meta_epoch": "2025-12-25T02:40:47.582976",
        "meta_mean_motion": 14.21412956,
        "meta_eccentricity": 0.0003269,
        "meta_inclination": 98.6781,
        "meta_ra_of_asc_node": 48.8597,
        "meta_arg_of_pericenter": 118.3818,
        "meta_mean_anomaly": 241.769,
        "meta_ephemeris_type": 0,
        "meta_classification_type": "U",
        "meta_norad_cat_id": 38771,
        "meta_element_set_no": 999,
        "meta_rev_at_epoch": 68853,
        "meta_bstar": 8.0105e-05,
        "meta_mean_motion_dot": 1.32e-06,
        "meta_mean_motion_ddot": 0,
        "tle_line1": "1 38771U 12049A   25359.11166184  .00000132  00000+0  80105-4 0  9997",
        "tle_line2": "2 38771  98.6781  48.8597 0003269 118.3818 241.7690 14.21412956688532"
      },
      "geometry": {
        "type": "Point",
        "coordinates": [
          -104.68532678946369,
          70.84796585135882
        ]
      }
    },
    {
      "type": "Feature",
      "properties": {
        "norad_id": 39216,
        "name": "INSAT-3D",
        "group": "weather",
        "lat": -1.0648275853461917,
        "lon": 38.23424774793107,
        "alt_km": 35792.96470621493,
        "timestamp": "2025-12-25T11:37:44.064727+00:00",
        "meta_object_name": "INSAT-3D",
        "meta_object_id": "2013-038B",
        "meta_epoch": "2025-12-25T01:49:38.586720",
        "meta_mean_motion": 1.00274291,
        "meta_eccentricity": 0.0001906,
        "meta_inclination": 1.4749,
        "meta_ra_of_asc_node": 84.8578,
        "meta_arg_of_pericenter": 156.5491,
        "meta_mean_anomaly": 9.3857,
        "meta_ephemeris_type": 0,
        "meta_classification_type": "U",
        "meta_norad_cat_id": 39216,
        "meta_element_set_no": 999,
        "meta_rev_at_epoch": 4533,
        "meta_bstar": 0,
        "meta_mean_motion_dot": -3.18e-06,
        "meta_mean_motion_ddot": 0,
        "tle_line1": "1 39216U 13038B   25359.07614105 -.00000318  00000+0  00000+0 0  9995",
        "tle_line2": "2 39216   1.4749  84.8578 0001906 156.5491   9.3857  1.00274291 45338"
      },
      "geometry": {
        "type": "Point",
        "coordinates": [
          38.23424774793107,
          -1.0648275853461917
        ]
      }
    },
    {
      "type": "Feature",
      "properties": {
        "norad_id": 39260,
        "name": "FENGYUN 3C",
        "group": "weather",
        "lat": 81.2867604737856,
        "lon": -126.75137180349468,
        "alt_km": 828.2903376847262,
        "timestamp": "2025-12-25T11:37:44.064738+00:00",
        "meta_object_name": "FENGYUN 3C",
        "meta_object_id": "2013-052A",
        "meta_epoch": "2025-12-25T04:24:38.206656",
        "meta_mean_motion": 14.15699993,
        "meta_eccentricity": 0.0014978,
        "meta_inclination": 98.4779,
        "meta_ra_of_asc_node": 336.2563,
        "meta_arg_of_pericenter": 160.1629,
        "meta_mean_anomaly": 200.0131,
        "meta_ephemeris_type": 0,
        "meta_classification_type": "U",
        "meta_norad_cat_id": 39260,
        "meta_element_set_no": 999,
        "meta_rev_at_epoch": 63394,
        "meta_bstar": 8.1316e-05,
        "meta_mean_motion_dot": 1.18e-06,
        "meta_mean_motion_ddot": 0,
        "tle_line1": "1 39260U 13052A   25359.18377554  .00000118  00000+0  81316-4 0  9997",
        "tle_line2": "2 39260  98.4779 336.2563 0014978 160.1629 200.0131 14.15699993633946"
      },
      "geometry": {
        "type": "Point",
        "coordinates": [
          -126.75137180349468,
          81.2867604737856
        ]
      }
    }
  ]
}